{
    "links": {
        "self": "http://www.neowsapp.com/rest/v1/neo/3184158?api_key=iIulBulltgU6a56xZRHN4H3l9WmuAYTsLGpBGhQ2"
    },
    "id": "3184158",
    "neo_reference_id": "3184158",
    "name": "(2004 MV2)",
    "designation": "2004 MV2",
    "nasa_jpl_url": "http://ssd.jpl.nasa.gov/sbdb.cgi?sstr=3184158",
    "absolute_magnitude_h": 23.5,
    "estimated_diameter": {
        "kilometers": {
            "estimated_diameter_min": 0.0530340723,
            "estimated_diameter_max": 0.1185877909
        },
        "meters": {
            "estimated_diameter_min": 53.0340723319,
            "estimated_diameter_max": 118.5877908577
        },
        "miles": {
            "estimated_diameter_min": 0.0329538346,
            "estimated_diameter_max": 0.0736870142
        },
        "feet": {
            "estimated_diameter_min": 173.9963058693,
            "estimated_diameter_max": 389.0675677576
        }
    },
    "is_potentially_hazardous_asteroid": false,
    "close_approach_data": [
        {
            "close_approach_date": "2004-06-08",
            "close_approach_date_full": "2004-Jun-08 06:41",
            "epoch_date_close_approach": 1086676860000,
            "relative_velocity": {
                "kilometers_per_second": "11.1103464783",
                "kilometers_per_hour": "39997.2473219815",
                "miles_per_hour": "24852.7340373724"
            },
            "miss_distance": {
                "astronomical": "0.0851212175",
                "lunar": "33.1121536075",
                "kilometers": "12733952.829806725",
                "miles": "7912511.380413805"
            },
            "orbiting_body": "Earth"
        }
    ],
    "orbital_data": {
        "orbit_id": "9",
        "orbit_determination_date": "2017-04-06 09:12:36",
        "first_observation_date": "2004-06-19",
        "last_observation_date": "2004-06-23",
        "data_arc_in_days": 4,
        "observations_used": 21,
        "orbit_uncertainty": "9",
        "minimum_orbit_intersection": ".0671242",
        "jupiter_tisserand_invariant": "3.891",
        "epoch_osculation": "2453177.5",
        "eccentricity": ".4772653795012582",
        "semi_major_axis": "1.820109086128355",
        "inclination": "6.619243745962279",
        "ascending_node_longitude": "103.5599258804456",
        "orbital_period": "896.9010933264339",
        "perihelion_distance": ".9514340324036171",
        "perihelion_argument": "105.8172746901775",
        "aphelion_distance": "2.688784139853092",
        "perihelion_time": "2453127.057564387694",
        "mean_anomaly": "20.24668824193411",
        "mean_motion": ".4013820505724094",
        "equinox": "J2000",
        "orbit_class": {
            "orbit_class_type": "APO",
            "orbit_class_description": "Near-Earth asteroid orbits which cross the Earth’s orbit similar to that of 1862 Apollo",
            "orbit_class_range": "a (semi-major axis) > 1.0 AU; q (perihelion) < 1.017 AU"
        }
    },
    "is_sentry_object": false
}